{
    "links": {
        "self": "http://www.neowsapp.com/rest/v1/neo/3670103?api_key=iIulBulltgU6a56xZRHN4H3l9WmuAYTsLGpBGhQ2"
    },
    "id": "3670103",
    "neo_reference_id": "3670103",
    "name": "(2014 HW177)",
    "designation": "2014 HW177",
    "nasa_jpl_url": "http://ssd.jpl.nasa.gov/sbdb.cgi?sstr=3670103",
    "absolute_magnitude_h": 22.5,
    "estimated_diameter": {
        "kilometers": {
            "estimated_diameter_min": 0.0840533402,
            "estimated_diameter_max": 0.1879489824
        },
        "meters": {
            "estimated_diameter_min": 84.0533402073,
            "estimated_diameter_max": 187.9489824394
        },
        "miles": {
            "estimated_diameter_min": 0.0522283081,
            "estimated_diameter_max": 0.1167860472
        },
        "feet": {
            "estimated_diameter_min": 275.7655606856,
            "estimated_diameter_max": 616.6305395464
        }
    },
    "is_potentially_hazardous_asteroid": false,
    "close_approach_data": [
        {
            "close_approach_date": "2014-05-25",
            "close_approach_date_full": "2014-May-25 02:42",
            "epoch_date_close_approach": 1400985720000,
            "relative_velocity": {
                "kilometers_per_second": "9.2601508098",
                "kilometers_per_hour": "33336.5429153501",
                "miles_per_hour": "20714.0313464852"
            },
            "miss_distance": {
                "astronomical": "0.1786910491",
                "lunar": "69.5108180999",
                "kilometers": "26731800.333425417",
                "miles": "16610370.4940760746"
            },
            "orbiting_body": "Earth"
        }
    ],
    "orbital_data": {
        "orbit_id": "8",
        "orbit_determination_date": "2017-04-06 08:41:16",
        "first_observation_date": "2014-04-29",
        "last_observation_date": "2014-05-17",
        "data_arc_in_days": 18,
        "observations_used": 20,
        "orbit_uncertainty": "8",
        "minimum_orbit_intersection": ".178141",
        "jupiter_tisserand_invariant": "2.764",
        "epoch_osculation": "2456778.5",
        "eccentricity": ".643657340957884",
        "semi_major_axis": "3.301597755519186",
        "inclination": "13.00425941658931",
        "ascending_node_longitude": "49.90234518413429",
        "orbital_period": "2191.213363187067",
        "perihelion_distance": "1.176500123289189",
        "perihelion_argument": "201.78934796",
        "aphelion_distance": "5.426695387749183",
        "perihelion_time": "2456811.263753301814",
        "mean_anomaly": "354.6171598864761",
        "mean_motion": ".1642925358379472",
        "equinox": "J2000",
        "orbit_class": {
            "orbit_class_type": "AMO",
            "orbit_class_description": "Near-Earth asteroid orbits similar to that of 1221 Amor",
            "orbit_class_range": "1.017 AU < q (perihelion) < 1.3 AU"
        }
    },
    "is_sentry_object": false
}